start=new Date('2022-10-28T00:00:00.000Z').valueOf();
sats=[{"CENTER_NAME":"EARTH","MEAN_ANOMALY":"285.9224","EPOCH":"2022-10-27T22:00:00.999936","MEAN_MOTION":"15.08889265","DECAY_DATE":null,"LAUNCH_DATE":"2022-07-07","GP_ID":"216338679","TIME_SYSTEM":"UTC","REF_FRAME":"TEME","ECCENTRICITY":"0.00015450","EPHEMERIS_TYPE":"0","PERIOD":"95.434","CLASSIFICATION_TYPE":"U","ELEMENT_SET_NO":"999","REV_AT_EPOCH":"130","ARG_OF_PERICENTER":"68.8847","TLE_LINE2":"2 53001  53.2177 210.2842 0001545  68.8847 285.9224 15.08889265  1309","OBJECT_ID":"2022-076R","MEAN_MOTION_DDOT":"0.0000000000000","BSTAR":"-0.00377650000000","MEAN_MOTION_DOT":"-0.00059971","FILE":"3636022","APOAPSIS":"540.664","INCLINATION":"53.2177","COUNTRY_CODE":"US","TLE_LINE1":"1 53001U 22076R   22300.91667824 -.00059971  00000-0 -37765-2 0  9999","RCS_SIZE":"LARGE","SEMIMAJOR_AXIS":"6917.730","OBJECT_TYPE":"PAYLOAD","SITE":"AFETR","NORAD_CAT_ID":"53001","PERIAPSIS":"538.526","MEAN_ELEMENT_THEORY":"SGP4","RA_OF_ASC_NODE":"210.2842","OBJECT_NAME":"STARLINK-4190"},{"COUNTRY_CODE":"US","INCLINATION":"53.2163","APOAPSIS":"540.962","SEMIMAJOR_AXIS":"6917.777","TLE_LINE1":"1 53002U 22076S   22300.91667824 -.00059600  00000-0 -37543-2 0  9993","RCS_SIZE":"LARGE","OBJECT_NAME":"STARLINK-4121","RA_OF_ASC_NODE":"210.3014","MEAN_ELEMENT_THEORY":"SGP4","PERIAPSIS":"538.322","OBJECT_TYPE":"PAYLOAD","SITE":"AFETR","NORAD_CAT_ID":"53002","MEAN_MOTION":"15.08873819","MEAN_ANOMALY":"233.7557","EPOCH":"2022-10-27T22:00:00.999936","CENTER_NAME":"EARTH","GP_ID":"216339028","TIME_SYSTEM":"UTC","LAUNCH_DATE":"2022-07-07","DECAY_DATE":null,"ARG_OF_PERICENTER":"41.1284","CLASSIFICATION_TYPE":"U","ELEMENT_SET_NO":"999","REV_AT_EPOCH":"130","EPHEMERIS_TYPE":"0","PERIOD":"95.435","REF_FRAME":"TEME","ECCENTRICITY":"0.00019080","FILE":"3636022","MEAN_MOTION_DOT":"-0.00059600","BSTAR":"-0.00375430000000","MEAN_MOTION_DDOT":"0.0000000000000","TLE_LINE2":"2 53002  53.2163 210.3014 0001908  41.1284 233.7557 15.08873819  1307","OBJECT_ID":"2022-076S"},{"SEMIMAJOR_AXIS":"6917.769","RCS_SIZE":"MEDIUM","TLE_LINE1":"1 53003U 22076T   22300.91667824 -.00025388  00000-0 -15811-2 0  9994","INCLINATION":"53.2181","COUNTRY_CODE":"US","APOAPSIS":"540.618","MEAN_ELEMENT_THEORY":"SGP4","PERIAPSIS":"538.650","RA_OF_ASC_NODE":"210.2829","OBJECT_NAME":"STARLINK-4255","SITE":"AFETR","OBJECT_TYPE":"PAYLOAD","NORAD_CAT_ID":"53003","LAUNCH_DATE":"2022-07-07","DECAY_DATE":null,"GP_ID":"216338855","TIME_SYSTEM":"UTC","MEAN_MOTION":"15.08876407","CENTER_NAME":"EARTH","MEAN_ANOMALY":"326.6220","EPOCH":"2022-10-27T22:00:00.999936","BSTAR":"-0.00158110000000","MEAN_MOTION_DOT":"-0.00025388","FILE":"3636022","OBJECT_ID":"2022-076T","TLE_LINE2":"2 53003  53.2181 210.2829 0001422  68.2327 326.6220 15.08876407  1305","MEAN_MOTION_DDOT":"0.0000000000000","ELEMENT_SET_NO":"999","CLASSIFICATION_TYPE":"U","REV_AT_EPOCH":"130","ARG_OF_PERICENTER":"68.2327","ECCENTRICITY":"0.00014220","REF_FRAME":"TEME","PERIOD":"95.435","EPHEMERIS_TYPE":"0"},{"FILE":"3636022","MEAN_MOTION_DOT":"-0.00019386","BSTAR":"-0.00120270000000","MEAN_MOTION_DDOT":"0.0000000000000","TLE_LINE2":"2 53004  53.2157 210.2888 0001712  60.9361 253.9108 15.08854988  1300","OBJECT_ID":"2022-076U","ARG_OF_PERICENTER":"60.9361","ELEMENT_SET_NO":"999","CLASSIFICATION_TYPE":"U","REV_AT_EPOCH":"130","PERIOD":"95.437","EPHEMERIS_TYPE":"0","REF_FRAME":"TEME","ECCENTRICITY":"0.00017120","GP_ID":"216338086","TIME_SYSTEM":"UTC","LAUNCH_DATE":"2022-07-07","DECAY_DATE":null,"MEAN_MOTION":"15.08854988","EPOCH":"2022-10-27T22:00:00.999936","MEAN_ANOMALY":"253.9108","CENTER_NAME":"EARTH","OBJECT_NAME":"STARLINK-4253","RA_OF_ASC_NODE":"210.2888","MEAN_ELEMENT_THEORY":"SGP4","PERIAPSIS":"538.515","SITE":"AFETR","NORAD_CAT_ID":"53004","OBJECT_TYPE":"PAYLOAD","SEMIMAJOR_AXIS":"6917.835","TLE_LINE1":"1 53004U 22076U   22300.91667824 -.00019386  00000-0 -12027-2 0  9992","RCS_SIZE":"LARGE","COUNTRY_CODE":"US","INCLINATION":"53.2157","APOAPSIS":"540.884"},{"SEMIMAJOR_AXIS":"6917.821","RCS_SIZE":"LARGE","TLE_LINE1":"1 53005U 22076V   22300.91667824 -.00017061  00000-0 -10558-2 0  9998","INCLINATION":"53.2166","COUNTRY_CODE":"US","APOAPSIS":"540.839","OBJECT_NAME":"STARLINK-4288","MEAN_ELEMENT_THEORY":"SGP4","PERIAPSIS":"538.534","RA_OF_ASC_NODE":"210.2812","SITE":"AFETR","OBJECT_TYPE":"PAYLOAD","NORAD_CAT_ID":"53005","GP_ID":"216338262","TIME_SYSTEM":"UTC","DECAY_DATE":null,"LAUNCH_DATE":"2022-07-07","MEAN_MOTION":"15.08859289","EPOCH":"2022-10-27T22:00:00.999936","MEAN_ANOMALY":"347.3729","CENTER_NAME":"EARTH","FILE":"3636022","BSTAR":"-0.00105580000000","MEAN_MOTION_DOT":"-0.00017061","MEAN_MOTION_DDOT":"0.0000000000000","TLE_LINE2":"2 53005  53.2166 210.2812 0001666  67.5089 347.3729 15.08859289  1302","OBJECT_ID":"2022-076V","ARG_OF_PERICENTER":"67.5089","CLASSIFICATION_TYPE":"U","ELEMENT_SET_NO":"999","REV_AT_EPOCH":"130","ECCENTRICITY":"0.00016660","REF_FRAME":"TEME","PERIOD":"95.436","EPHEMERIS_TYPE":"0"},{"CENTER_NAME":"EARTH","MEAN_ANOMALY":"321.3603","EPOCH":"2022-10-27T22:00:00.999936","MEAN_MOTION":"15.08871872","LAUNCH_DATE":"2022-07-07","DECAY_DATE":null,"GP_ID":"216339312","TIME_SYSTEM":"UTC","ECCENTRICITY":"0.00017680","REF_FRAME":"TEME","EPHEMERIS_TYPE":"0","PERIOD":"95.436","ELEMENT_SET_NO":"999","CLASSIFICATION_TYPE":"U","REV_AT_EPOCH":"130","ARG_OF_PERICENTER":"53.5238","TLE_LINE2":"2 53006  53.2182 210.2844 0001768  53.5238 321.3603 15.08871872  1305","OBJECT_ID":"2022-076W","MEAN_MOTION_DDOT":"0.0000000000000","BSTAR":"-0.00322040000000","MEAN_MOTION_DOT":"-0.00051222","FILE":"3636022","APOAPSIS":"540.871","INCLINATION":"53.2182","COUNTRY_CODE":"US","TLE_LINE1":"1 53006U 22076W   22300.91667824 -.00051222  00000-0 -32204-2 0  9998","RCS_SIZE":"LARGE","SEMIMAJOR_AXIS":"6917.783","SITE":"AFETR","OBJECT_TYPE":"PAYLOAD","NORAD_CAT_ID":"53006","MEAN_ELEMENT_THEORY":"SGP4","PERIAPSIS":"538.425","RA_OF_ASC_NODE":"210.2844","OBJECT_NAME":"STARLINK-4290"},{"OBJECT_NAME":"STARLINK-4215","MEAN_ELEMENT_THEORY":"SGP4","PERIAPSIS":"538.498","RA_OF_ASC_NODE":"210.2820","NORAD_CAT_ID":"53007","SITE":"AFETR","OBJECT_TYPE":"PAYLOAD","INCLINATION":"53.2166","COUNTRY_CODE":"US","APOAPSIS":"540.753","SEMIMAJOR_AXIS":"6917.761","TLE_LINE1":"1 53007U 22076X   22300.91667824 -.00029417  00000-0 -18358-2 0  9994","RCS_SIZE":"LARGE","ARG_OF_PERICENTER":"60.2494","CLASSIFICATION_TYPE":"U","ELEMENT_SET_NO":"999","REV_AT_EPOCH":"130","ECCENTRICITY":"0.00016300","REF_FRAME":"TEME","PERIOD":"95.435","EPHEMERIS_TYPE":"0","FILE":"3636022","BSTAR":"-0.00183580000000","MEAN_MOTION_DOT":"-0.00029417","MEAN_MOTION_DDOT":"0.0000000000000","OBJECT_ID":"2022-076X","TLE_LINE2":"2 53007  53.2166 210.2820 0001630  60.2494  34.5886 15.08879106  1303","MEAN_MOTION":"15.08879106","EPOCH":"2022-10-27T22:00:00.999936","MEAN_ANOMALY":"34.5886","CENTER_NAME":"EARTH","GP_ID":"216338438","TIME_SYSTEM":"UTC","DECAY_DATE":null,"LAUNCH_DATE":"2022-07-07"},{"TLE_LINE1":"1 53008U 22076Y   22300.91667824 -.00068417  00000-0 -43156-2 0  9992","RCS_SIZE":"LARGE","SEMIMAJOR_AXIS":"6917.717","APOAPSIS":"540.480","COUNTRY_CODE":"US","INCLINATION":"53.2173","NORAD_CAT_ID":"53008","SITE":"AFETR","OBJECT_TYPE":"PAYLOAD","OBJECT_NAME":"STARLINK-4275","RA_OF_ASC_NODE":"210.2849","PERIAPSIS":"538.685","MEAN_ELEMENT_THEORY":"SGP4","GP_ID":"216338504","TIME_SYSTEM":"UTC","DECAY_DATE":null,"LAUNCH_DATE":"2022-07-07","EPOCH":"2022-10-27T22:00:00.999936","MEAN_ANOMALY":"12.1079","CENTER_NAME":"EARTH","MEAN_MOTION":"15.08893338","MEAN_MOTION_DDOT":"0.0000000000000","OBJECT_ID":"2022-076Y","TLE_LINE2":"2 53008  53.2173 210.2849 0001297  57.5182  12.1079 15.08893338  1304","FILE":"3636022","MEAN_MOTION_DOT":"-0.00068417","BSTAR":"-0.00431560000000","PERIOD":"95.434","EPHEMERIS_TYPE":"0","ECCENTRICITY":"0.00012970","REF_FRAME":"TEME","ARG_OF_PERICENTER":"57.5182","CLASSIFICATION_TYPE":"U","ELEMENT_SET_NO":"999","REV_AT_EPOCH":"130"},{"CENTER_NAME":"EARTH","EPOCH":"2022-10-28T02:00:01.999872","MEAN_ANOMALY":"296.6440","MEAN_MOTION":"15.08847786","DECAY_DATE":null,"LAUNCH_DATE":"2022-07-07","TIME_SYSTEM":"UTC","GP_ID":"216313619","ECCENTRICITY":"0.00016530","REF_FRAME":"TEME","PERIOD":"95.437","EPHEMERIS_TYPE":"0","ELEMENT_SET_NO":"999","REV_AT_EPOCH":"1797","CLASSIFICATION_TYPE":"U","ARG_OF_PERICENTER":"59.0791","OBJECT_ID":"2022-076Z","TLE_LINE2":"2 53009  53.2156 199.5515 0001653  59.0791 296.6440 15.08847786 17971","MEAN_MOTION_DDOT":"0.0000000000000","BSTAR":"0.00022515000000","MEAN_MOTION_DOT":"0.00003298","FILE":"3636015","APOAPSIS":"540.865","INCLINATION":"53.2156","COUNTRY_CODE":"US","RCS_SIZE":"LARGE","TLE_LINE1":"1 53009U 22076Z   22301.08335648  .00003298  00000-0  22515-3 0  9999","SEMIMAJOR_AXIS":"6917.857","SITE":"AFETR","NORAD_CAT_ID":"53009","OBJECT_TYPE":"PAYLOAD","MEAN_ELEMENT_THEORY":"SGP4","PERIAPSIS":"538.578","RA_OF_ASC_NODE":"199.5515","OBJECT_NAME":"STARLINK-4277"},{"FILE":"3636022","BSTAR":"-0.00470550000000","MEAN_MOTION_DOT":"-0.00074477","MEAN_MOTION_DDOT":"0.0000000000000","TLE_LINE2":"2 53010  53.2170 210.2835 0002072  43.1202  31.7064 15.08875353  1303","OBJECT_ID":"2022-076AA","ARG_OF_PERICENTER":"43.1202","REV_AT_EPOCH":"130","CLASSIFICATION_TYPE":"U","ELEMENT_SET_NO":"999","ECCENTRICITY":"0.00020720","REF_FRAME":"TEME","PERIOD":"95.435","EPHEMERIS_TYPE":"0","TIME_SYSTEM":"UTC","GP_ID":"216339029","DECAY_DATE":null,"LAUNCH_DATE":"2022-07-07","MEAN_MOTION":"15.08875353","EPOCH":"2022-10-27T22:00:00.999936","MEAN_ANOMALY":"31.7064","CENTER_NAME":"EARTH","OBJECT_NAME":"STARLINK-4263","PERIAPSIS":"538.204","MEAN_ELEMENT_THEORY":"SGP4","RA_OF_ASC_NODE":"210.2835","OBJECT_TYPE":"PAYLOAD","SITE":"AFETR","NORAD_CAT_ID":"53010","SEMIMAJOR_AXIS":"6917.772","TLE_LINE1":"1 53010U 22076AA  22300.91667824 -.00074477  00000-0 -47055-2 0  9990","RCS_SIZE":"LARGE","INCLINATION":"53.2170","COUNTRY_CODE":"US","APOAPSIS":"541.071"}];
